[{"OBJECT_NAME":"GEESAT-5 06","OBJECT_ID":"2025-201F","EPOCH":"2026-03-09T12:12:25.250112","MEAN_MOTION":14.83771772,"ECCENTRICITY":0.00144332,"INCLINATION":49.9906,"RA_OF_ASC_NODE":141.562,"ARG_OF_PERICENTER":298.4848,"MEAN_ANOMALY":61.4637,"EPHEMERIS_TYPE":0,"CLASSIFICATION_TYPE":"U","NORAD_CAT_ID":65555,"ELEMENT_SET_NO":999,"REV_AT_EPOCH":2698,"BSTAR":0.00016353536,"MEAN_MOTION_DOT":1.141e-5,"MEAN_MOTION_DDOT":0},{"OBJECT_NAME":"AETHER-4","OBJECT_ID":"2026-004N","EPOCH":"2026-03-09T23:25:23.871072","MEAN_MOTION":14.88037965,"ECCENTRICITY":0.00064882,"INCLINATION":97.8035,"RA_OF_ASC_NODE":69.2093,"ARG_OF_PERICENTER":90.2831,"MEAN_ANOMALY":269.9129,"EPHEMERIS_TYPE":0,"CLASSIFICATION_TYPE":"U","NORAD_CAT_ID":67375,"ELEMENT_SET_NO":999,"REV_AT_EPOCH":854,"BSTAR":0.00015024135,"MEAN_MOTION_DOT":1.326e-5,"MEAN_MOTION_DDOT":0}]
