GEESAT-5 06             
1 65555U 25201F   26068.50862558  .00001141  00000+0  16354-3 0  9995
2 65555  49.9906 141.5620 0014433 298.4848  61.4637 14.83771772 26981
AETHER-4                
1 67375U 26004N   26068.97597073  .00001326  00000+0  15024-3 0  9995
2 67375  97.8035  69.2093 0006488  90.2831 269.9129 14.88037965  8546
